{"type": "FeatureCollection", "features": [ {"type": "Feature", "properties": {"norad_id": 65304, "name": "DRAGON CRS-33", "group": "stations", "lat": -12.934603388517264, "lon": -94.25580534532617, "alt_km": 420.0836733576298, "timestamp": "2025-12-26T07:29:17.227974+00:00", "meta": {"OBJECT_NAME": "DRAGON CRS-33", "OBJECT_ID": "2025-186A", "EPOCH": "2025-12-25T21:21:30.152448", "MEAN_MOTION": 15.49823805, "ECCENTRICITY": 0.00032345, "INCLINATION": 51.6319, "RA_OF_ASC_NODE": 77.3524, "ARG_OF_PERICENTER": 301.523, "MEAN_ANOMALY": 58.5443, "EPHEMERIS_TYPE": 0, "CLASSIFICATION_TYPE": "U", "NORAD_CAT_ID": 65304, "ELEMENT_SET_NO": 999, "REV_AT_EPOCH": 11, "BSTAR": 0.00025321218, "MEAN_MOTION_DOT": 0.00013933, "MEAN_MOTION_DDOT": 0}, "tle": {"line1": "1 65304U 25186A   25359.88993232  .00013933  00000+0  25321-3 0  9992", "line2": "2 65304  51.6319  77.3524 0003234 301.5230  58.5443 15.49823805   115"}}, "geometry": {"type": "Point", "coordinates": [-94.25580534532617, -12.934603388517264]}}, {"type": "Feature", "properties": {"norad_id": 65586, "name": "PROGRESS-MS 32", "group": "stations", "lat": -12.934603886287455, "lon": -94.25580492369215, "alt_km": 420.0836733849501, "timestamp": "2025-12-26T07:29:17.227984+00:00", "meta": {"OBJECT_NAME": "PROGRESS-MS 32", "OBJECT_ID": "2025-204A", "EPOCH": "2025-12-25T21:21:30.152448", "MEAN_MOTION": 15.49823805, "ECCENTRICITY": 0.00032345, "INCLINATION": 51.6319, "RA_OF_ASC_NODE": 77.3524, "ARG_OF_PERICENTER": 301.523, "MEAN_ANOMALY": 58.5443, "EPHEMERIS_TYPE": 0, "CLASSIFICATION_TYPE": "U", "NORAD_CAT_ID": 65586, "ELEMENT_SET_NO": 999, "REV_AT_EPOCH": 27, "BSTAR": 0.00025321218, "MEAN_MOTION_DOT": 0.00013933, "MEAN_MOTION_DDOT": 0}, "tle": {"line1": "1 65586U 25204A   25359.88993232  .00013933  00000+0  25321-3 0  9995", "line2": "2 65586  51.6319  77.3524 0003234 301.5230  58.5443 15.49823805   274"}}, "geometry": {"type": "Point", "coordinates": [-94.25580492369215, -12.934603886287455]}}, {"type": "Feature", "properties": {"norad_id": 65616, "name": "CYGNUS NG-23", "group": "stations", "lat": -12.934604384057684, "lon": -94.2558045020581, "alt_km": 420.0836734122722, "timestamp": "2025-12-26T07:29:17.227994+00:00", "meta": {"OBJECT_NAME": "CYGNUS NG-23", "OBJECT_ID": "2025-208A", "EPOCH": "2025-12-25T21:21:30.152448", "MEAN_MOTION": 15.49823805, "ECCENTRICITY": 0.00032345, "INCLINATION": 51.6319, "RA_OF_ASC_NODE": 77.3524, "ARG_OF_PERICENTER": 301.523, "MEAN_ANOMALY": 58.5443, "EPHEMERIS_TYPE": 0, "CLASSIFICATION_TYPE": "U", "NORAD_CAT_ID": 65616, "ELEMENT_SET_NO": 999, "REV_AT_EPOCH": 22, "BSTAR": 0.00025321218, "MEAN_MOTION_DOT": 0.00013933, "MEAN_MOTION_DDOT": 0}, "tle": {"line1": "1 65616U 25208A   25359.88993232  .00013933  00000+0  25321-3 0  9993", "line2": "2 65616  51.6319  77.3524 0003234 301.5230  58.5443 15.49823805   223"}}, "geometry": {"type": "Point", "coordinates": [-94.2558045020581, -12.934604384057684]}}, {"type": "Feature", "properties": {"norad_id": 65729, "name": "DRAGONFLY", "group": "stations", "lat": -45.04505188719587, "lon": 13.490076454814416, "alt_km": 341.4095106230343, "timestamp": "2025-12-26T07:29:17.228004+00:00", "meta": {"OBJECT_NAME": "DRAGONFLY", "OBJECT_ID": "1998-067XH", "EPOCH": "2025-12-25T10:27:45.650592", "MEAN_MOTION": 15.76365427, "ECCENTRICITY": 0.0008108, "INCLINATION": 51.6246, "RA_OF_ASC_NODE": 70.5435, "ARG_OF_PERICENTER": 352.3473, "MEAN_ANOMALY": 7.7402, "EPHEMERIS_TYPE": 0, "CLASSIFICATION_TYPE": "U", "NORAD_CAT_ID": 65729, "ELEMENT_SET_NO": 999, "REV_AT_EPOCH": 1516, "BSTAR": 0.0012462, "MEAN_MOTION_DOT": 0.00205682, "MEAN_MOTION_DDOT": 0}, "tle": {"line1": "1 65729U 98067XH  25359.43594503  .00205682  00000+0  12462-2 0  9995", "line2": "2 65729  51.6246  70.5435 0008108 352.3473   7.7402 15.76365427 15162"}}, "geometry": {"type": "Point", "coordinates": [13.490076454814416, -45.04505188719587]}}, {"type": "Feature", "properties": {"norad_id": 65731, "name": "1998-067XK", "group": "stations", "lat": -24.73375625834371, "lon": 46.83201801951611, "alt_km": 363.4962199042793, "timestamp": "2025-12-26T07:29:17.228015+00:00", "meta": {"OBJECT_NAME": "1998-067XK", "OBJECT_ID": "1998-067XK", "EPOCH": "2025-12-25T10:12:53.157600", "MEAN_MOTION": 15.68190108, "ECCENTRICITY": 0.0005001, "INCLINATION": 51.6286, "RA_OF_ASC_NODE": 72.7563, "ARG_OF_PERICENTER": 324.4841, "MEAN_ANOMALY": 35.5822, "EPHEMERIS_TYPE": 0, "CLASSIFICATION_TYPE": "U", "NORAD_CAT_ID": 65731, "ELEMENT_SET_NO": 999, "REV_AT_EPOCH": 1513, "BSTAR": 0.00091133, "MEAN_MOTION_DOT": 0.00104664, "MEAN_MOTION_DDOT": 0}, "tle": {"line1": "1 65731U 98067XK  25359.42561525  .00104664  00000+0  91133-3 0  9996", "line2": "2 65731  51.6286  72.7563 0005001 324.4841  35.5822 15.68190108 15138"}}, "geometry": {"type": "Point", "coordinates": [46.83201801951611, -24.73375625834371]}}, {"type": "Feature", "properties": {"norad_id": 65732, "name": "RSP-03", "group": "stations", "lat": 49.92545202115189, "lon": 176.82234274698524, "alt_km": 348.273272891146, "timestamp": "2025-12-26T07:29:17.228025+00:00", "meta": {"OBJECT_NAME": "RSP-03", "OBJECT_ID": "1998-067XL", "EPOCH": "2025-12-25T06:38:37.432032", "MEAN_MOTION": 15.71873826, "ECCENTRICITY": 0.0006046, "INCLINATION": 51.626, "RA_OF_ASC_NODE": 72.4976, "ARG_OF_PERICENTER": 331.0295, "MEAN_ANOMALY": 29.0366, "EPHEMERIS_TYPE": 0, "CLASSIFICATION_TYPE": "U", "NORAD_CAT_ID": 65732, "ELEMENT_SET_NO": 999, "REV_AT_EPOCH": 1513, "BSTAR": 0.0010911, "MEAN_MOTION_DOT": 0.00147046, "MEAN_MOTION_DDOT": 0}, "tle": {"line1": "1 65732U 98067XL  25359.27682213  .00147046  00000+0  10911-2 0  9993", "line2": "2 65732  51.6260  72.4976 0006046 331.0295  29.0366 15.71873826 15133"}}, "geometry": {"type": "Point", "coordinates": [176.82234274698524, 49.92545202115189]}}, {"type": "Feature", "properties": {"norad_id": 65733, "name": "GHS-01", "group": "stations", "lat": 20.63801022413233, "lon": 82.45853700846523, "alt_km": 319.25977812115707, "timestamp": "2025-12-26T07:29:17.228038+00:00", "meta": {"OBJECT_NAME": "GHS-01", "OBJECT_ID": "1998-067XM", "EPOCH": "2025-12-25T11:39:15.872832", "MEAN_MOTION": 15.80737686, "ECCENTRICITY": 0.0009282, "INCLINATION": 51.6282, "RA_OF_ASC_NODE": 69.3856, "ARG_OF_PERICENTER": 357.4612, "MEAN_ANOMALY": 2.6342, "EPHEMERIS_TYPE": 0, "CLASSIFICATION_TYPE": "U", "NORAD_CAT_ID": 65733, "ELEMENT_SET_NO": 999, "REV_AT_EPOCH": 1519, "BSTAR": 0.0014102, "MEAN_MOTION_DOT": 0.0028642, "MEAN_MOTION_DDOT": 0}, "tle": {"line1": "1 65733U 98067XM  25359.48560038  .00286420  00000+0  14102-2 0  9993", "line2": "2 65733  51.6282  69.3856 0009282 357.4612   2.6342 15.80737686 15190"}}, "geometry": {"type": "Point", "coordinates": [82.45853700846523, 20.63801022413233]}}, {"type": "Feature", "properties": {"norad_id": 65941, "name": "YOTSUBA-KULOVER", "group": "stations", "lat": 41.48945947556673, "lon": -152.81724467638327, "alt_km": 379.1678701461815, "timestamp": "2025-12-26T07:29:17.228048+00:00", "meta": {"OBJECT_NAME": "YOTSUBA-KULOVER", "OBJECT_ID": "1998-067XN", "EPOCH": "2025-12-25T07:55:23.883456", "MEAN_MOTION": 15.61141246, "ECCENTRICITY": 0.00024963, "INCLINATION": 51.6289, "RA_OF_ASC_NODE": 76.6197, "ARG_OF_PERICENTER": 359.01, "MEAN_ANOMALY": 1.0889, "EPHEMERIS_TYPE": 0, "CLASSIFICATION_TYPE": "U", "NORAD_CAT_ID": 65941, "ELEMENT_SET_NO": 999, "REV_AT_EPOCH": 1182, "BSTAR": 0.00081019067, "MEAN_MOTION_DOT": 0.00069861, "MEAN_MOTION_DDOT": 0}, "tle": {"line1": "1 65941U 98067XN  25359.33013754  .00069861  00000+0  81019-3 0  9996", "line2": "2 65941  51.6289  76.6197 0002496 359.0100   1.0889 15.61141246 11822"}}, "geometry": {"type": "Point", "coordinates": [-152.81724467638327, 41.48945947556673]}}, {"type": "Feature", "properties": {"norad_id": 65942, "name": "BOTAN", "group": "stations", "lat": -49.73423717324028, "lon": 1.2777646088455472, "alt_km": 374.4124789221087, "timestamp": "2025-12-26T07:29:17.228061+00:00", "meta": {"OBJECT_NAME": "BOTAN", "OBJECT_ID": "1998-067XP", "EPOCH": "2025-12-25T11:54:02.710944", "MEAN_MOTION": 15.65573117, "ECCENTRICITY": 0.00034448, "INCLINATION": 51.6278, "RA_OF_ASC_NODE": 74.724, "ARG_OF_PERICENTER": 339.5705, "MEAN_ANOMALY": 20.5152, "EPHEMERIS_TYPE": 0, "CLASSIFICATION_TYPE": "U", "NORAD_CAT_ID": 65942, "ELEMENT_SET_NO": 999, "REV_AT_EPOCH": 1186, "BSTAR": 0.0011099214, "MEAN_MOTION_DOT": 0.0011485, "MEAN_MOTION_DDOT": 0}, "tle": {"line1": "1 65942U 98067XP  25359.49586471  .00114850  00000+0  11099-2 0  9994", "line2": "2 65942  51.6278  74.7240 0003444 339.5705  20.5152 15.65573117 11860"}}, "geometry": {"type": "Point", "coordinates": [1.2777646088455472, -49.73423717324028]}}, {"type": "Feature", "properties": {"norad_id": 65943, "name": "E-KAGAKU-1", "group": "stations", "lat": 41.763437524720985, "lon": -153.35243918418834, "alt_km": 379.10586219731704, "timestamp": "2025-12-26T07:29:17.228071+00:00", "meta": {"OBJECT_NAME": "E-KAGAKU-1", "OBJECT_ID": "1998-067XQ", "EPOCH": "2025-12-25T10:59:52.984032", "MEAN_MOTION": 15.61171734, "ECCENTRICITY": 0.00014574, "INCLINATION": 51.631, "RA_OF_ASC_NODE": 75.9814, "ARG_OF_PERICENTER": 327.9549, "MEAN_ANOMALY": 32.1355, "EPHEMERIS_TYPE": 0, "CLASSIFICATION_TYPE": "U", "NORAD_CAT_ID": 65943, "ELEMENT_SET_NO": 999, "REV_AT_EPOCH": 1184, "BSTAR": 0.00081459816, "MEAN_MOTION_DOT": 0.00070327, "MEAN_MOTION_DDOT": 0}, "tle": {"line1": "1 65943U 98067XQ  25359.45825213  .00070327  00000+0  81460-3 0  9991", "line2": "2 65943  51.6310  75.9814 0001457 327.9549  32.1355 15.61171734 11844"}}, "geometry": {"type": "Point", "coordinates": [-153.35243918418834, 41.763437524720985]}}]}